NORAD_CAT_ID,OBJECT_NAME,OBJECT_TYPE,EPOCH,MEAN_MOTION,ECCENTRICITY,INCLINATION,RA_OF_ASC_NODE,ARG_OF_PERICENTER,MEAN_ANOMALY,BSTAR,MEAN_MOTION_DOT,MEAN_MOTION_DDOT,TLE_LINE0,TLE_LINE1,TLE_LINE2,SEMIMAJOR_AXIS,PERIOD,APOGEE,PERIGEE,DECAYED
51469.0,STARLINK-3182,PAYLOAD,2022-11-18 16:04:21,15.0884453,0.0002459,53.2179,297.648,28.2293,331.8832,0.00021687,3.165e-05,0.0,0 STARLINK-3182,1 51469U 22010P   22322.66969125  .00003165  00000-0  21687-3 0  9997,2 51469  53.2179 297.6480 0002459  28.2293 331.8832 15.08844530 44606,6917.8669999999975,95.437,541.433,538.03,0.0
51469.0,STARLINK-3182,PAYLOAD,2022-11-19 07:58:12,15.08848906,0.0002845,53.2174,294.6752,25.0465,335.0665,0.00025474,3.769e-05,0.0,0 STARLINK-3182,1 51469U 22010P   22323.33208979  .00003769  00000-0  25474-3 0  9993,2 51469  53.2174 294.6752 0002845  25.0465 335.0665 15.08848906 44707,6917.853,95.437,541.686,537.75,0.0
51469.0,STARLINK-3182,PAYLOAD,2022-11-19 22:16:40,15.08846729,0.0002934,53.217,291.9984,25.807,334.3068,0.00018442,2.648e-05,0.0,0 STARLINK-3182,1 51469U 22010P   22323.92824906  .00002648  00000-0  18442-3 0  9994,2 51469  53.2170 291.9984 0002934  25.8070 334.3068 15.08846729 45294,6917.86,95.437,541.755,537.695,0.0
51469.0,STARLINK-3182,PAYLOAD,2022-11-20 07:48:59,15.08840638,0.0002995,53.2174,290.2148,25.3194,334.7945,1.3111e-05,-8e-07,0.0,0 STARLINK-3182,1 51469U 22010P   22324.32569108 -.00000080  00000-0  13111-4 0  9997,2 51469  53.2174 290.2148 0002995  25.3194 334.7945 15.08840638 45359,6917.878000000002,95.438,541.815,537.672,0.0
51469.0,STARLINK-3182,PAYLOAD,2022-11-20 22:07:28,15.08839649,0.0002979,53.2174,287.5383,26.5126,333.6018,3.501e-05,2.69e-06,0.0,0 STARLINK-3182,1 51469U 22010P   22324.92185240  .00000269  00000-0  35010-4 0  9994,2 51469  53.2174 287.5383 0002979  26.5126 333.6018 15.08839649 44942,6917.880999999999,95.438,541.807,537.686,0.0
51469.0,STARLINK-3182,PAYLOAD,2022-11-21 07:39:46,15.08845724,0.0003011,53.2184,285.7551,27.6806,332.4346,9.2985e-05,1.192e-05,0.0,0 STARLINK-3182,1 51469U 22010P   22325.31928941  .00001192  00000-0  92985-4 0  9991,2 51469  53.2184 285.7551 0003011  27.6806 332.4346 15.08845724 45005,6917.863,95.437,541.811,537.645,0.0
51469.0,STARLINK-3182,PAYLOAD,2022-11-21 21:58:15,15.08850352,0.0003001,53.2187,283.08,27.8739,332.2413,-0.00011689,-2.149e-05,0.0,0 STARLINK-3182,1 51469U 22010P   22325.91545162 -.00002149  00000-0 -11689-3 0  9993,2 51469  53.2187 283.0800 0003001  27.8739 332.2413 15.08850352 45097,6917.849,95.437,541.79,537.638,0.0
51469.0,STARLINK-3182,PAYLOAD,2022-11-22 04:19:47,15.0884402,0.0003152,53.2192,281.8895,28.9865,331.1302,0.00015052,2.108e-05,0.0,0 STARLINK-3182,1 51469U 22010P   22326.18040918  .00002108  00000-0  15052-3 0  9993,2 51469  53.2192 281.8895 0003152  28.9865 331.1302 15.08844020 45632,6917.868,95.437,541.914,537.553,0.0
51469.0,STARLINK-3182,PAYLOAD,2022-11-22 20:13:39,15.08838179,0.0003177,53.219,278.9167,30.8457,329.2722,0.00012265,1.664e-05,0.0,0 STARLINK-3182,1 51469U 22010P   22326.84281378  .00001664  00000-0  12265-3 0  9992,2 51469  53.2190 278.9167 0003177  30.8457 329.2722 15.08838179 45233,6917.886,95.438,541.9490000000002,537.553,0.0
51469.0,STARLINK-3182,PAYLOAD,2022-11-23 04:10:35,15.08831723,0.0002935,53.2189,277.4305,34.1035,326.0145,-7.426e-06,-4.07e-06,0.0,0 STARLINK-3182,1 51469U 22010P   22327.17402180 -.00000407  00000-0 -74260-5 0  9996,2 51469  53.2189 277.4305 0002935  34.1035 326.0145 15.08831723 45781,6917.906,95.438,541.8009999999998,537.74,0.0
51469.0,STARLINK-3182,PAYLOAD,2022-11-23 13:42:54,15.08837146,0.000306,53.2185,275.6454,31.3445,328.7729,4.6249e-05,4.47e-06,0.0,0 STARLINK-3182,1 51469U 22010P   22327.57145835  .00000447  00000-0  46249-4 0  9998,2 51469  53.2185 275.6454 0003060  31.3445 328.7729 15.08837146 45340,6917.889,95.438,541.871,537.637,0.0
51469.0,STARLINK-3182,PAYLOAD,2022-11-24 05:36:46,15.08831831,0.0003012,53.2195,272.6715,33.4804,326.6378,-4.4194e-05,-9.92e-06,0.0,0 STARLINK-3182,1 51469U 22010P   22328.23386693 -.00000992  00000-0 -44194-4 0  9995,2 51469  53.2195 272.6715 0003012  33.4804 326.6378 15.08831831 45945,6917.905,95.438,541.854,537.687,0.0
51469.0,STARLINK-3182,PAYLOAD,2022-11-25 03:52:09,15.08838511,0.0003076,53.2192,268.5085,31.4701,328.6475,0.00016632,2.359e-05,0.0,0 STARLINK-3182,1 51469U 22010P   22329.16121937  .00002359  00000-0  16632-3 0  9998,2 51469  53.2192 268.5085 0003076  31.4701 328.6475 15.08838511 46088,6917.885,95.438,541.878,537.622,0.0
51469.0,STARLINK-3182,PAYLOAD,2022-11-25 13:24:27,15.08848275,0.0003132,53.2193,266.7238,31.7899,328.3282,0.00016832,2.392e-05,0.0,0 STARLINK-3182,1 51469U 22010P   22329.55865389  .00002392  00000-0  16832-3 0  9996,2 51469  53.2193 266.7238 0003132  31.7899 328.3282 15.08848275 46141,6917.855,95.437,541.887,537.553,0.0
51469.0,STARLINK-3182,PAYLOAD,2022-11-25 19:46:00,15.08842033,0.0003063,53.2189,265.5343,32.6947,327.4234,0.00015728,2.216e-05,0.0,0 STARLINK-3182,1 51469U 22010P   22329.82361793  .00002216  00000-0  15728-3 0  9994,2 51469  53.2189 265.5343 0003063  32.6947 327.4234 15.08842033 45688,6917.874,95.437,541.8580000000002,537.62,0.0
51469.0,STARLINK-3182,PAYLOAD,2022-11-26 02:07:32,15.08846868,0.0003006,53.2185,264.3447,33.0188,327.0991,0.00019616,2.835e-05,0.0,0 STARLINK-3182,1 51469U 22010P   22330.08857403  .00002835  00000-0  19616-3 0  9999,2 51469  53.2185 264.3447 0003006  33.0188 327.0991 15.08846868 45726,6917.859,95.437,541.804,537.645,0.0
51469.0,STARLINK-3182,PAYLOAD,2022-11-27 05:09:04,15.08862465,0.0003165,53.2183,259.289,34.2111,325.9085,0.00015517,2.183e-05,0.0,0 STARLINK-3182,1 51469U 22010P   22331.21463863  .00002183  00000-0  15517-3 0  9990,2 51469  53.2183 259.2890 0003165  34.2111 325.9085 15.08862465 46390,6917.812,95.436,541.866,537.487,0.0
51469.0,STARLINK-3182,PAYLOAD,2022-11-28 04:59:52,15.08846672,0.000315,53.2187,254.8299,30.182,329.9353,5.1993e-06,-2.06e-06,0.0,0 STARLINK-3182,1 51469U 22010P   22332.20824647 -.00000206  00000-0  51993-5 0  9996,2 51469  53.2187 254.8299 0003150  30.1820 329.9353 15.08846672 46545,6917.86,95.437,541.904,537.5459999999998,0.0
51469.0,STARLINK-3182,PAYLOAD,2022-11-29 01:39:53,15.08846035,0.0003078,53.2187,250.9636,31.2968,328.8207,-0.00010084,-1.894e-05,0.0,0 STARLINK-3182,1 51469U 22010P   22333.06936768 -.00001894  00000-0 -10084-3 0  9998,2 51469  53.2187 250.9636 0003078  31.2968 328.8207 15.08846035 46179,6917.861999999999,95.437,541.856,537.5980000000002,0.0
51469.0,STARLINK-3182,PAYLOAD,2022-11-29 19:09:08,15.08831616,0.0003295,53.2185,247.6927,30.3784,329.7399,3.1589e-05,2.14e-06,0.0,0 STARLINK-3182,1 51469U 22010P   22333.79801454  .00000214  00000-0  31589-4 0  9998,2 51469  53.2185 247.6927 0003295  30.3784 329.7399 15.08831616 46788,6917.906,95.438,542.05,537.492,0.0
51469.0,STARLINK-3182,PAYLOAD,2022-11-29 23:55:18,15.08826627,0.0003085,53.2183,246.8012,30.2121,329.9048,-3.7041e-05,-8.78e-06,0.0,0 STARLINK-3182,1 51469U 22010P   22333.99674016 -.00000878  00000-0 -37041-4 0  9999,2 51469  53.2183 246.8012 0003085  30.2121 329.9048 15.08826627 46816,6917.920999999999,95.438,541.92,537.6519999999998,0.0
51469.0,STARLINK-3182,PAYLOAD,2022-11-30 11:03:00,15.08830784,0.0003111,53.2184,244.7202,30.0273,330.0897,1.6587e-05,-2.5e-07,0.0,0 STARLINK-3182,1 51469U 22010P   22334.46041896 -.00000025  00000-0  16587-4 0  9991,2 51469  53.2184 244.7202 0003111  30.0273 330.0897 15.08830784 46387,6917.909000000002,95.438,541.9259999999998,537.621,0.0
51469.0,STARLINK-3182,PAYLOAD,2022-11-30 17:24:32,15.08843303,0.0003097,53.2185,243.5302,29.7482,330.3686,-9.8838e-06,-4.46e-06,0.0,0 STARLINK-3182,1 51469U 22010P   22334.72537538 -.00000446  00000-0 -98838-5 0  9991,2 51469  53.2185 243.5302 0003097  29.7482 330.3686 15.08843303 46926,6917.87,95.437,541.878,537.5930000000002,0.0
51469.0,STARLINK-3182,PAYLOAD,2022-12-01 10:53:47,15.08833909,0.0003143999999999,53.2185,240.2604,28.3952,331.7211,8.769799999999999e-05,1.107e-05,0.0,0 STARLINK-3182,1 51469U 22010P   22335.45402101  .00001107  00000-0  87698-4 0  9993,2 51469  53.2185 240.2604 0003144  28.3952 331.7211 15.08833909 46532,6917.899,95.438,541.939,537.589,0.0
51469.0,STARLINK-3182,PAYLOAD,2022-12-02 12:19:57,15.08844983,0.0003298,53.2185,235.5028,31.0993,329.0194,1.5115e-05,-4.8e-07,0.0,0 STARLINK-3182,1 51469U 22010P   22336.51386153 -.00000048  00000-0  15115-4 0  9998,2 51469  53.2185 235.5028 0003298  31.0993 329.0194 15.08844983 47192,6917.865,95.437,542.012,537.4490000000002,0.0
51469.0,STARLINK-3182,PAYLOAD,2022-12-02 20:16:53,15.08835116,0.0003276,53.2182,234.0159,33.9116,326.2085,0.00034104,5.143e-05,0.0,0 STARLINK-3182,1 51469U 22010P   22336.84506124  .00005143  00000-0  34104-3 0  9994,2 51469  53.2182 234.0159 0003276  33.9116 326.2085 15.08835116 46748,6917.895,95.438,542.0269999999998,537.494,0.0
51469.0,STARLINK-3182,PAYLOAD,2022-12-03 10:35:21,15.0883448,0.000324,53.2176,231.34,30.0063,330.1114,2.9517e-05,1.81e-06,0.0,0 STARLINK-3182,1 51469U 22010P   22337.44122418  .00000181  00000-0  29517-4 0  9991,2 51469  53.2176 231.3400 0003240  30.0063 330.1114 15.08834480 47336,6917.897,95.438,542.004,537.521,0.0
51469.0,STARLINK-3182,PAYLOAD,2022-12-04 02:29:12,15.08844258,0.0003221,53.2174,228.3669,29.9297,330.1879,0.0001462,2.039e-05,0.0,0 STARLINK-3182,1 51469U 22010P   22338.10361644  .00002039  00000-0  14620-3 0  9993,2 51469  53.2174 228.3669 0003221  29.9297 330.1879 15.08844258 47435,6917.8669999999975,95.437,541.961,537.504,0.0
51469.0,STARLINK-3182,PAYLOAD,2022-12-04 10:26:08,15.0883538,0.0003341,53.2175,226.879,32.0041,328.1153,6.0761e-05,6.78e-06,0.0,0 STARLINK-3182,1 51469U 22010P   22338.43482483  .00000678  00000-0  60761-4 0  9999,2 51469  53.2175 226.8790 0003341  32.0041 328.1153 15.08835380 47482,6917.895,95.438,542.071,537.448,0.0
